NETSAT-1                
1 46506U 20068W   20324.78454693  .00000199  00000-0  19897-4 0  9991
2 46506  97.6637 257.6545 0011558  83.0531 277.2022 15.01757794  7774
NETSAT-2                
1 46507U 20068X   20324.78503665  .00000158  00000-0  16719-4 0  9991
2 46507  97.6644 257.6559 0012040  83.6228 276.6397 15.01742112  7725
